[{"OBJECT_NAME":"YAOGAN-39 05C","OBJECT_ID":"2023-194C","EPOCH":"2026-03-09T22:48:54.340416","MEAN_MOTION":15.16682362,"ECCENTRICITY":0.00139818,"INCLINATION":34.9933,"RA_OF_ASC_NODE":339.8218,"ARG_OF_PERICENTER":233.6352,"MEAN_ANOMALY":126.3071,"EPHEMERIS_TYPE":0,"CLASSIFICATION_TYPE":"U","NORAD_CAT_ID":58559,"ELEMENT_SET_NO":999,"REV_AT_EPOCH":12504,"BSTAR":0.0003860733,"MEAN_MOTION_DOT":7.728e-5,"MEAN_MOTION_DDOT":0},{"OBJECT_NAME":"AC1-003","OBJECT_ID":"2025-276Z","EPOCH":"2026-03-09T17:12:51.689952","MEAN_MOTION":15.17742943,"ECCENTRICITY":0.0003195,"INCLINATION":97.4278,"RA_OF_ASC_NODE":143.9026,"ARG_OF_PERICENTER":29.6743,"MEAN_ANOMALY":330.4672,"EPHEMERIS_TYPE":0,"CLASSIFICATION_TYPE":"U","NORAD_CAT_ID":66689,"ELEMENT_SET_NO":999,"REV_AT_EPOCH":1531,"BSTAR":0.00015796492,"MEAN_MOTION_DOT":3.121e-5,"MEAN_MOTION_DDOT":0}]
